{"type": "FeatureCollection", "features": [ {"type": "Feature", "properties": {"norad_id": 30173, "name": "FENGYUN 1C DEB", "group": "fengyun-1c-debris", "lat": -62.68129002285323, "lon": -132.1962030961321, "alt_km": 807.0496688288449, "timestamp": "2025-12-20T20:38:44.717164+00:00", "meta": {"OBJECT_NAME": "FENGYUN 1C DEB", "OBJECT_ID": "1999-025UE", "EPOCH": "2025-12-20T04:29:11.341248", "MEAN_MOTION": 14.1142324, "ECCENTRICITY": 0.00810502, "INCLINATION": 98.9763, "RA_OF_ASC_NODE": 64.9484, "ARG_OF_PERICENTER": 267.4939, "MEAN_ANOMALY": 157.64, "EPHEMERIS_TYPE": 0, "CLASSIFICATION_TYPE": "U", "NORAD_CAT_ID": 30173, "ELEMENT_SET_NO": 999, "REV_AT_EPOCH": 96654, "BSTAR": 0.0010297801, "MEAN_MOTION_DOT": 1.878e-05, "MEAN_MOTION_DDOT": 0}, "tle": {"line1": "1 30173U 99025UE  25354.18693682  .00001878  00000+0  10298-2 0  9996", "line2": "2 30173  98.9763  64.9484 0081050 267.4939 157.6400 14.11423240966542"}}, "geometry": {"type": "Point", "coordinates": [-132.1962030961321, -62.68129002285323]}}, {"type": "Feature", "properties": {"norad_id": 30174, "name": "FENGYUN 1C DEB", "group": "fengyun-1c-debris", "lat": 43.70345564062643, "lon": -27.050995831030757, "alt_km": 626.7841673470821, "timestamp": "2025-12-20T20:38:44.717175+00:00", "meta": {"OBJECT_NAME": "FENGYUN 1C DEB", "OBJECT_ID": "1999-025UF", "EPOCH": "2025-12-20T07:22:32.948256", "MEAN_MOTION": 14.81474487, "ECCENTRICITY": 0.0018535, "INCLINATION": 98.7755, "RA_OF_ASC_NODE": 143.8539, "ARG_OF_PERICENTER": 20.4157, "MEAN_ANOMALY": 47.8285, "EPHEMERIS_TYPE": 0, "CLASSIFICATION_TYPE": "U", "NORAD_CAT_ID": 30174, "ELEMENT_SET_NO": 999, "REV_AT_EPOCH": 98480, "BSTAR": 0.0027439228, "MEAN_MOTION_DOT": 0.00021561, "MEAN_MOTION_DDOT": 0}, "tle": {"line1": "1 30174U 99025UF  25354.30732579  .00021561  00000+0  27439-2 0  9996", "line2": "2 30174  98.7755 143.8539 0018535  20.4157  47.8285 14.81474487984803"}}, "geometry": {"type": "Point", "coordinates": [-27.050995831030757, 43.70345564062643]}}, {"type": "Feature", "properties": {"norad_id": 30175, "name": "FENGYUN 1C DEB", "group": "fengyun-1c-debris", "lat": -66.21015600533575, "lon": -151.10714398555825, "alt_km": 897.5918190561142, "timestamp": "2025-12-20T20:38:44.717185+00:00", "meta": {"OBJECT_NAME": "FENGYUN 1C DEB", "OBJECT_ID": "1999-025UG", "EPOCH": "2025-12-19T10:34:10.565184", "MEAN_MOTION": 13.83873351, "ECCENTRICITY": 0.0146555, "INCLINATION": 99.3803, "RA_OF_ASC_NODE": 49.4979, "ARG_OF_PERICENTER": 194.8691, "MEAN_ANOMALY": 181.9345, "EPHEMERIS_TYPE": 0, "CLASSIFICATION_TYPE": "U", "NORAD_CAT_ID": 30175, "ELEMENT_SET_NO": 999, "REV_AT_EPOCH": 95433, "BSTAR": 0.00031975, "MEAN_MOTION_DOT": 3.4e-06, "MEAN_MOTION_DDOT": 0}, "tle": {"line1": "1 30175U 99025UG  25353.44040006  .00000340  00000+0  31975-3 0  9991", "line2": "2 30175  99.3803  49.4979 0146555 194.8691 181.9345 13.83873351954333"}}, "geometry": {"type": "Point", "coordinates": [-151.10714398555825, -66.21015600533575]}}, {"type": "Feature", "properties": {"norad_id": 30177, "name": "FENGYUN 1C DEB", "group": "fengyun-1c-debris", "lat": 22.886544184005913, "lon": 121.28363759609836, "alt_km": 761.6093678659236, "timestamp": "2025-12-20T20:38:44.717195+00:00", "meta": {"OBJECT_NAME": "FENGYUN 1C DEB", "OBJECT_ID": "1999-025UJ", "EPOCH": "2025-12-20T02:22:16.943808", "MEAN_MOTION": 13.62831468, "ECCENTRICITY": 0.04519324, "INCLINATION": 98.6277, "RA_OF_ASC_NODE": 296.9318, "ARG_OF_PERICENTER": 118.9907, "MEAN_ANOMALY": 260.7835, "EPHEMERIS_TYPE": 0, "CLASSIFICATION_TYPE": "U", "NORAD_CAT_ID": 30177, "ELEMENT_SET_NO": 999, "REV_AT_EPOCH": 93563, "BSTAR": 0.00068889774, "MEAN_MOTION_DOT": 1.04e-05, "MEAN_MOTION_DDOT": 0}, "tle": {"line1": "1 30177U 99025UJ  25354.09880722  .00001040  00000+0  68890-3 0  9996", "line2": "2 30177  98.6277 296.9318 0451932 118.9907 260.7835 13.62831468935635"}}, "geometry": {"type": "Point", "coordinates": [121.28363759609836, 22.886544184005913]}}, {"type": "Feature", "properties": {"norad_id": 30178, "name": "FENGYUN 1C DEB", "group": "fengyun-1c-debris", "lat": -70.80100892092564, "lon": -91.06015614238912, "alt_km": 1255.4825113080387, "timestamp": "2025-12-20T20:38:44.717205+00:00", "meta": {"OBJECT_NAME": "FENGYUN 1C DEB", "OBJECT_ID": "1999-025UK", "EPOCH": "2025-12-20T04:04:32.277792", "MEAN_MOTION": 13.58708989, "ECCENTRICITY": 0.02808777, "INCLINATION": 102.2606, "RA_OF_ASC_NODE": 229.4366, "ARG_OF_PERICENTER": 110.0639, "MEAN_ANOMALY": 39.1197, "EPHEMERIS_TYPE": 0, "CLASSIFICATION_TYPE": "U", "NORAD_CAT_ID": 30178, "ELEMENT_SET_NO": 999, "REV_AT_EPOCH": 93272, "BSTAR": 0.0015254105, "MEAN_MOTION_DOT": 1.381e-05, "MEAN_MOTION_DDOT": 0}, "tle": {"line1": "1 30178U 99025UK  25354.16981803  .00001381  00000+0  15254-2 0  9990", "line2": "2 30178 102.2606 229.4366 0280877 110.0639  39.1197 13.58708989932723"}}, "geometry": {"type": "Point", "coordinates": [-91.06015614238912, -70.80100892092564]}}, {"type": "Feature", "properties": {"norad_id": 30181, "name": "FENGYUN 1C DEB", "group": "fengyun-1c-debris", "lat": 25.823511453904434, "lon": -97.49283438661398, "alt_km": 821.8674633706178, "timestamp": "2025-12-20T20:38:44.717216+00:00", "meta": {"OBJECT_NAME": "FENGYUN 1C DEB", "OBJECT_ID": "1999-025UN", "EPOCH": "2025-12-20T04:56:46.589856", "MEAN_MOTION": 14.29295213, "ECCENTRICITY": 0.0040037, "INCLINATION": 98.8434, "RA_OF_ASC_NODE": 77.5229, "ARG_OF_PERICENTER": 337.2934, "MEAN_ANOMALY": 52.4573, "EPHEMERIS_TYPE": 0, "CLASSIFICATION_TYPE": "U", "NORAD_CAT_ID": 30181, "ELEMENT_SET_NO": 999, "REV_AT_EPOCH": 97618, "BSTAR": 0.0010122575, "MEAN_MOTION_DOT": 2.552e-05, "MEAN_MOTION_DDOT": 0}, "tle": {"line1": "1 30181U 99025UN  25354.20609479  .00002552  00000+0  10123-2 0  9996", "line2": "2 30181  98.8434  77.5229 0040037 337.2934  52.4573 14.29295213976183"}}, "geometry": {"type": "Point", "coordinates": [-97.49283438661398, 25.823511453904434]}}, {"type": "Feature", "properties": {"norad_id": 30182, "name": "FENGYUN 1C DEB", "group": "fengyun-1c-debris", "lat": 39.76410918550916, "lon": -126.65084414073144, "alt_km": 943.8691439819659, "timestamp": "2025-12-20T20:38:44.717226+00:00", "meta": {"OBJECT_NAME": "FENGYUN 1C DEB", "OBJECT_ID": "1999-025UP", "EPOCH": "2025-12-20T09:46:04.050912", "MEAN_MOTION": 13.96459438, "ECCENTRICITY": 0.00746249, "INCLINATION": 99.0645, "RA_OF_ASC_NODE": 45.2693, "ARG_OF_PERICENTER": 1.6613, "MEAN_ANOMALY": 19.9711, "EPHEMERIS_TYPE": 0, "CLASSIFICATION_TYPE": "U", "NORAD_CAT_ID": 30182, "ELEMENT_SET_NO": 999, "REV_AT_EPOCH": 96415, "BSTAR": 2.5381402e-05, "MEAN_MOTION_DOT": -8e-08, "MEAN_MOTION_DDOT": 0}, "tle": {"line1": "1 30182U 99025UP  25354.40699133 -.00000008  00000+0  25381-4 0  9994", "line2": "2 30182  99.0645  45.2693 0074624   1.6613  19.9711 13.96459438964153"}}, "geometry": {"type": "Point", "coordinates": [-126.65084414073144, 39.76410918550916]}}, {"type": "Feature", "properties": {"norad_id": 30183, "name": "FENGYUN 1C DEB", "group": "fengyun-1c-debris", "lat": 53.664716172248916, "lon": 24.804568801772557, "alt_km": 864.04137025398, "timestamp": "2025-12-20T20:38:44.717236+00:00", "meta": {"OBJECT_NAME": "FENGYUN 1C DEB", "OBJECT_ID": "1999-025UQ", "EPOCH": "2025-12-20T08:32:11.247936", "MEAN_MOTION": 14.12676241, "ECCENTRICITY": 0.00262594, "INCLINATION": 98.7878, "RA_OF_ASC_NODE": 36.4502, "ARG_OF_PERICENTER": 231.1708, "MEAN_ANOMALY": 138.9734, "EPHEMERIS_TYPE": 0, "CLASSIFICATION_TYPE": "U", "NORAD_CAT_ID": 30183, "ELEMENT_SET_NO": 999, "REV_AT_EPOCH": 97251, "BSTAR": 0.0004141194, "MEAN_MOTION_DOT": 7.26e-06, "MEAN_MOTION_DDOT": 0}, "tle": {"line1": "1 30183U 99025UQ  25354.35568574  .00000726  00000+0  41412-3 0  9991", "line2": "2 30183  98.7878  36.4502 0026259 231.1708 138.9734 14.12676241972513"}}, "geometry": {"type": "Point", "coordinates": [24.804568801772557, 53.664716172248916]}}, {"type": "Feature", "properties": {"norad_id": 30191, "name": "FENGYUN 1C DEB", "group": "fengyun-1c-debris", "lat": 80.87094082855141, "lon": -7.240442023133306, "alt_km": 686.6774469692209, "timestamp": "2025-12-20T20:38:44.717246+00:00", "meta": {"OBJECT_NAME": "FENGYUN 1C DEB", "OBJECT_ID": "1999-025UY", "EPOCH": "2025-12-20T04:14:43.980288", "MEAN_MOTION": 14.7813844, "ECCENTRICITY": 0.00971175, "INCLINATION": 98.7754, "RA_OF_ASC_NODE": 66.0195, "ARG_OF_PERICENTER": 239.8618, "MEAN_ANOMALY": 174.0743, "EPHEMERIS_TYPE": 0, "CLASSIFICATION_TYPE": "U", "NORAD_CAT_ID": 30191, "ELEMENT_SET_NO": 999, "REV_AT_EPOCH": 385, "BSTAR": 0.00082546123, "MEAN_MOTION_DOT": 6.402e-05, "MEAN_MOTION_DDOT": 0}, "tle": {"line1": "1 30191U 99025UY  25354.17689792  .00006402  00000+0  82546-3 0  9996", "line2": "2 30191  98.7754  66.0195 0097117 239.8618 174.0743 14.78138440  3857"}}, "geometry": {"type": "Point", "coordinates": [-7.240442023133306, 80.87094082855141]}}, {"type": "Feature", "properties": {"norad_id": 30193, "name": "FENGYUN 1C DEB", "group": "fengyun-1c-debris", "lat": 36.48975429795566, "lon": -103.169765255675, "alt_km": 701.0415751463379, "timestamp": "2025-12-20T20:38:44.717257+00:00", "meta": {"OBJECT_NAME": "FENGYUN 1C DEB", "OBJECT_ID": "1999-025VA", "EPOCH": "2025-12-20T07:44:46.978944", "MEAN_MOTION": 14.49156014, "ECCENTRICITY": 0.01074956, "INCLINATION": 98.757, "RA_OF_ASC_NODE": 262.8194, "ARG_OF_PERICENTER": 110.3703, "MEAN_ANOMALY": 5.5166, "EPHEMERIS_TYPE": 0, "CLASSIFICATION_TYPE": "U", "NORAD_CAT_ID": 30193, "ELEMENT_SET_NO": 999, "REV_AT_EPOCH": 99276, "BSTAR": 0.00044633355, "MEAN_MOTION_DOT": 1.776e-05, "MEAN_MOTION_DDOT": 0}, "tle": {"line1": "1 30193U 99025VA  25354.32276596  .00001776  00000+0  44633-3 0  9993", "line2": "2 30193  98.7570 262.8194 0107495 110.3703   5.5166 14.49156014992768"}}, "geometry": {"type": "Point", "coordinates": [-103.169765255675, 36.48975429795566]}}]}